EUTELSAT 7A             
1 28187U 04008A   25293.09597591  .00000108  00000+0  00000+0 0  9991
2 28187   5.2182  74.8590 0001613 187.3879  21.9321  1.00273874 78941
EUTELSAT 174A           
1 28924U 05052A   25293.19836493  .00000015  00000+0  00000+0 0  9995
2 28924   3.6090  79.4869 0006310 133.0950  61.8218  1.00275103 49928
EUTELSAT HOTBIRD 13B    
1 29270U 06032A   25293.27286338  .00000159  00000+0  00000+0 0  9994
2 29270   1.0382  84.8286 0003995 117.4177 318.0694  1.00271572 44909
EUTELSAT HOTBIRD 13C    
1 33459U 08065A   25293.26376333 -.00000096  00000+0  00000+0 0  9991
2 33459   2.3304  82.0130 0005842 148.0965 241.3483  1.00272253 44942
EUTELSAT 36B            
1 36101U 09065A   25293.15461678  .00000113  00000+0  00000+0 0  9993
2 36101   0.0618  38.7689 0006059 175.5499 280.7256  1.00274190 58309
EUTELSAT KA-SAT 9A      
1 37258U 10069A   25293.26801002  .00000064  00000+0  00000+0 0  9999
2 37258   0.0602 317.9637 0002542 217.5754 318.9580  1.00270148 41603
EUTELSAT 7 WEST A       
1 37816U 11051A   25293.26480334 -.00000058  00000+0  00000+0 0  9996
2 37816   0.0859  41.4291 0006342 163.6457 271.9473  1.00272165 51482
EUTELSAT 16A            
1 37836U 11057A   25293.26939670  .00000106  00000+0  00000+0 0  9999
2 37836   0.0668  18.2186 0005537 194.4408 289.3339  1.00273614  4921
